ONEWEB-0349             
1 49281U 21090C   25111.64120838  .00000090  00000+0  18847-3 0  9997
2 49281  87.9342 358.3745 0001704  89.5636 270.5692 13.20768989175471
ONEWEB-0353             
1 49282U 21090D   25112.20322874 -.00000128  00000+0 -38034-3 0  9999
2 49282  87.9092  13.4379 0001832  71.0819 289.0509 13.14501249173564
ONEWEB-0356             
1 49283U 21090E   25111.63964182  .00000115  00000+0  25010-3 0  9994
2 49283  87.9323 358.3692 0002788  80.0629 280.0819 13.20770142175475
ONEWEB-0358             
1 49284U 21090F   25112.19991480  .00000020  00000+0  16412-4 0  9990
2 49284  87.9307 358.2504 0001968  95.7628 264.3730 13.20773702176271
ONEWEB-0359             
1 49285U 21090G   25111.21193597 -.00000015  00000+0 -69205-4 0  9990
2 49285  87.9314 358.4579 0001870  95.4981 264.6365 13.20770245174831
ONEWEB-0360             
1 49286U 21090H   25111.65700606  .00000041  00000+0  69255-4 0  9996
2 49286  87.9311 358.3757 0001842  88.6938 271.4406 13.20770384174208
ONEWEB-0361             
1 49287U 21090J   25111.63807174  .00000113  00000+0  24547-3 0  9997
2 49287  87.9309 358.3748 0002005  83.0066 277.1295 13.20771004175489
ONEWEB-0362             
1 49288U 21090K   25112.16657869  .00000077  00000+0  16092-3 0  9996
2 49288  87.9257  28.6760 0001693  78.0697 282.0625 13.19726604172202
